NORAD_CAT_ID,OBJECT_NAME,OBJECT_TYPE,EPOCH,MEAN_MOTION,ECCENTRICITY,INCLINATION,RA_OF_ASC_NODE,ARG_OF_PERICENTER,MEAN_ANOMALY,BSTAR,MEAN_MOTION_DOT,MEAN_MOTION_DDOT,TLE_LINE0,TLE_LINE1,TLE_LINE2,SEMIMAJOR_AXIS,PERIOD,APOGEE,PERIGEE,DECAYED
51781.0,STARLINK-3580,PAYLOAD,2023-01-01 17:44:59,15.08842614,0.0003143999999999,53.2154,159.8133,49.6981,310.4285,4.0835e-05,3.61e-06,0.0,0 STARLINK-3580,1 51781U 22017P   23001.73957750  .00000361  00000-0  40835-4 0  9997,2 51781  53.2154 159.8133 0003144  49.6981 310.4285 15.08842614 46858,6917.871999999999,95.437,541.9119999999998,537.562,0.0
51781.0,STARLINK-3580,PAYLOAD,2023-01-02 03:17:18,15.08845222,0.000315,53.2157,158.0291,49.8364,310.2903,5.388600000000001e-05,5.69e-06,0.0,0 STARLINK-3580,1 51781U 22017P   23002.13701450  .00000569  00000-0  53886-4 0  9996,2 51781  53.2157 158.0291 0003150  49.8364 310.2903 15.08845222 48564,6917.864000000001,95.437,541.909,537.55,0.0
51781.0,STARLINK-3580,PAYLOAD,2023-01-02 11:14:13,15.08842313,0.0003082,53.2158,156.542,49.3762,310.7497,2.1121e-05,4.7e-07,0.0,0 STARLINK-3580,1 51781U 22017P   23002.46821565  .00000047  00000-0  21121-4 0  9990,2 51781  53.2158 156.5420 0003082  49.3762 310.7497 15.08842313 46966,6917.873000000001,95.437,541.87,537.606,0.0
51781.0,STARLINK-3580,PAYLOAD,2023-01-02 19:11:09,15.08838364,0.0003115,53.2159,155.0553,48.9981,311.128,-1.9238e-05,-5.95e-06,0.0,0 STARLINK-3580,1 51781U 22017P   23002.79941912 -.00000595  00000-0 -19238-4 0  9991,2 51781  53.2159 155.0553 0003115  48.9981 311.1280 15.08838364 48668,6917.885,95.438,541.905,537.595,0.0
51781.0,STARLINK-3580,PAYLOAD,2023-01-03 11:05:01,15.08837091,0.00031,53.2162,152.0816,49.9008,310.2255,0.00011708,1.575e-05,0.0,0 STARLINK-3580,1 51781U 22017P   23003.46181784  .00001575  00000-0  11708-3 0  9999,2 51781  53.2162 152.0816 0003100  49.9008 310.2255 15.08837091 47113,6917.889,95.438,541.899,537.61,0.0
51781.0,STARLINK-3580,PAYLOAD,2023-01-03 15:51:10,15.08830952,0.0003113,53.2163,151.1895,49.9508,310.1757,5.9468e-05,6.58e-06,0.0,0 STARLINK-3580,1 51781U 22017P   23003.66054392  .00000658  00000-0  59468-4 0  9992,2 51781  53.2163 151.1895 0003113  49.9508 310.1757 15.08830952 48790,6917.908,95.438,541.927,537.62,0.0
51781.0,STARLINK-3580,PAYLOAD,2023-01-04 15:41:56,15.08848835,0.0003048,53.2162,146.7284,50.8129,309.3133,0.00014877,2.081e-05,0.0,0 STARLINK-3580,1 51781U 22017P   23004.65412949  .00002081  00000-0  14877-3 0  9994,2 51781  53.2162 146.7284 0003048  50.8129 309.3133 15.08848835 48942,6917.853,95.437,541.827,537.61,0.0
51781.0,STARLINK-3580,PAYLOAD,2023-01-05 02:49:38,15.0884714,0.0002917,53.2154,144.6464,52.0328,308.0927,0.00015534,2.185e-05,0.0,0 STARLINK-3580,1 51781U 22017P   23005.11780866  .00002185  00000-0  15534-3 0  9998,2 51781  53.2154 144.6464 0002917  52.0328 308.0927 15.08847140 47369,6917.859,95.437,541.742,537.706,0.0
51781.0,STARLINK-3580,PAYLOAD,2023-01-05 15:32:42,15.08860286,0.0003078,53.2148,142.2671,52.3835,307.7437,4.919e-05,4.95e-06,0.0,0 STARLINK-3580,1 51781U 22017P   23005.64771882  .00000495  00000-0  49190-4 0  9992,2 51781  53.2148 142.2671 0003078  52.3835 307.7437 15.08860286 47448,6917.818,95.436,541.813,537.554,0.0
51781.0,STARLINK-3580,PAYLOAD,2023-01-06 12:12:45,15.08832489,0.0002587,53.216,138.4014,47.8946,312.2266,-0.000149,-2.659e-05,0.0,0 STARLINK-3580,1 51781U 22017P   23006.50885625 -.00002659  00000-0 -14900-3 0  9995,2 51781  53.2160 138.4014 0002587  47.8946 312.2266 15.08832489 49229,6917.903,95.438,541.558,537.979,0.0
51781.0,STARLINK-3580,PAYLOAD,2023-01-07 16:49:41,15.088371100000002,0.0002824,53.2165,133.0498,44.1546,315.9671,9.3524e-06,-1.4e-06,0.0,0 STARLINK-3580,1 51781U 22017P   23007.70117882 -.00000140  00000-0  93524-5 0  9994,2 51781  53.2165 133.0498 0002824  44.1546 315.9671 15.08837110 49407,6917.889,95.438,541.7080000000002,537.8009999999998,0.0
51781.0,STARLINK-3580,PAYLOAD,2023-01-08 00:46:38,15.08827251,0.0002835,53.2165,131.5637,42.6623,317.4588,-4.8641e-05,-1.062e-05,0.0,0 STARLINK-3580,1 51781U 22017P   23008.03238932 -.00001062  00000-0 -48641-4 0  9995,2 51781  53.2165 131.5637 0002835  42.6623 317.4588 15.08827251 49450,6917.919,95.438,541.746,537.823,0.0
51781.0,STARLINK-3580,PAYLOAD,2023-01-08 10:18:56,15.08831988,0.0002709,53.2171,129.7781,39.0838,321.0349,0.00022174,3.242e-05,0.0,0 STARLINK-3580,1 51781U 22017P   23008.42982378  .00003242  00000-0  22174-3 0  9990,2 51781  53.2171 129.7781 0002709  39.0838 321.0349 15.08831988 49519,6917.905,95.438,541.644,537.896,0.0
51781.0,STARLINK-3580,PAYLOAD,2023-01-09 10:09:44,15.08837445,0.0002918999999999,53.216,125.3178,39.5297,320.5907,0.00012169,1.649e-05,0.0,0 STARLINK-3580,1 51781U 22017P   23009.42342656  .00001649  00000-0  12169-3 0  9992,2 51781  53.2160 125.3178 0002919  39.5297 320.5907 15.08837445 48018,6917.888000000001,95.438,541.773,537.734,0.0
51781.0,STARLINK-3580,PAYLOAD,2023-01-09 16:31:16,15.08845417,0.0002872,53.2151,124.1296,42.5105,317.6109,0.00020891,3.038e-05,0.0,0 STARLINK-3580,1 51781U 22017P   23009.68838301  .00003038  00000-0  20891-3 0  9992,2 51781  53.2151 124.1296 0002872  42.5105 317.6109 15.08845417 49702,6917.864000000001,95.437,541.716,537.742,0.0
51781.0,STARLINK-3580,PAYLOAD,2023-01-10 00:28:12,15.08838071,0.0003849,53.2123,122.6408,47.7341,312.3977,0.00014351,1.996e-05,0.0,0 STARLINK-3580,1 51781U 22017P   23010.01959102  .00001996  00000-0  14351-3 0  9999,2 51781  53.2123 122.6408 0003849  47.7341 312.3977 15.08838071 49751,6917.886,95.438,542.414,537.089,0.0
51781.0,STARLINK-3580,PAYLOAD,2023-01-10 11:35:53,15.08841605,0.0002778,53.2153,120.5619,34.9276,325.1898,4.4939e-05,4.27e-06,0.0,0 STARLINK-3580,1 51781U 22017P   23010.48326364  .00000427  00000-0  44939-4 0  9992,2 51781  53.2153 120.5619 0002778  34.9276 325.1898 15.08841605 48176,6917.875,95.437,541.6619999999998,537.819,0.0
51781.0,STARLINK-3580,PAYLOAD,2023-01-11 01:54:20,15.0888006,0.0003096,53.2153,117.8865,36.0341,324.086,-0.00085234,-0.00013844,0.0,0 STARLINK-3580,1 51781U 22017P   23011.07940466 -.00013844  00000-0 -85234-3 0  9994,2 51781  53.2153 117.8865 0003096  36.0341 324.0860 15.08880060 49916,6917.758000000002,95.435,541.765,537.481,0.0
51781.0,STARLINK-3580,PAYLOAD,2023-01-11 13:02:03,15.08851447,0.000265,53.2153,115.8031,34.3694,325.7469,0.00015102,2.117e-05,0.0,0 STARLINK-3580,1 51781U 22017P   23011.54309678  .00002117  00000-0  15102-3 0  9996,2 51781  53.2153 115.8031 0002650  34.3694 325.7469 15.08851447 49983,6917.845,95.437,541.544,537.877,0.0
51781.0,STARLINK-3580,PAYLOAD,2023-01-12 16:03:36,15.08842296,0.000263,53.2151,110.7489,28.9399,331.1739,3.9482e-05,3.4e-06,0.0,0 STARLINK-3580,1 51781U 22017P   23012.66917668  .00000340  00000-0  39482-4 0  9998,2 51781  53.2151 110.7489 0002630  28.9399 331.1739 15.08842296 50155,6917.873000000001,95.437,541.558,537.919,0.0
51781.0,STARLINK-3580,PAYLOAD,2023-01-13 00:00:33,15.08822955,0.0002921,53.2155,109.2619,37.7506,322.3691,-0.0002507,-4.275e-05,0.0,0 STARLINK-3580,1 51781U 22017P   23013.00039080 -.00004275  00000-0 -25070-3 0  9990,2 51781  53.2155 109.2619 0002921  37.7506 322.3691 15.08822955 50203,6917.932,95.439,541.818,537.7769999999998,0.0
51781.0,STARLINK-3580,PAYLOAD,2023-01-13 12:43:39,15.08823643,0.0002225,53.2164,106.8818,33.6158,326.4975,-0.0001224,-2.235e-05,0.0,0 STARLINK-3580,1 51781U 22017P   23013.53031994 -.00002235  00000-0 -12240-3 0  9993,2 51781  53.2164 106.8818 0002225  33.6158 326.4975 15.08823643 48631,6917.93,95.439,541.335,538.256,0.0
51781.0,STARLINK-3580,PAYLOAD,2023-01-13 15:54:25,15.08831187,0.0002563999999999,53.2155,106.2884,33.7487,326.3668,-0.00012144,-2.22e-05,0.0,0 STARLINK-3580,1 51781U 22017P   23013.66279675 -.00002220  00000-0 -12144-3 0  9994,2 51781  53.2155 106.2884 0002564  33.7487 326.3668 15.08831187 50307,6917.906999999999,95.438,541.5459999999999,537.999,0.0
51781.0,STARLINK-3580,PAYLOAD,2023-01-14 06:12:52,15.08847291,0.0002592,53.216,103.6121,32.1352,327.9798,0.00011086,1.477e-05,0.0,0 STARLINK-3580,1 51781U 22017P   23014.25894207  .00001477  00000-0  11086-3 0  9999,2 51781  53.2160 103.6121 0002592  32.1352 327.9798 15.08847291 50396,6917.858,95.437,541.516,537.93,0.0
51781.0,STARLINK-3580,PAYLOAD,2023-01-14 22:06:44,15.08840674,0.0003177999999999,53.2143,100.6362,46.6846,313.441,0.00011637,1.564e-05,0.0,0 STARLINK-3580,1 51781U 22017P   23014.92135403  .00001564  00000-0  11637-3 0  9998,2 51781  53.2143 100.6362 0003178  46.6846 313.4410 15.08840674 50490,6917.878000000001,95.438,541.942,537.545,0.0
51781.0,STARLINK-3580,PAYLOAD,2023-01-15 12:25:13,15.08843931,0.0002676,53.2152,97.9616,55.6083,304.5162,0.0004971999999999,7.635e-05,0.0,0 STARLINK-3580,1 51781U 22017P   23015.51751485  .00007635  00000-0  49720-3 0  9997,2 51781  53.2152  97.9616 0002676  55.6083 304.5162 15.08843931 48935,6917.868,95.437,541.585,537.882,0.0
51781.0,STARLINK-3580,PAYLOAD,2023-01-15 21:57:32,15.08837747,0.0002144,53.2152,96.1786,48.7387,311.3789,0.00093102,0.00014559,0.0,0 STARLINK-3580,1 51781U 22017P   23015.91495976  .00014559  00000-0  93102-3 0  9997,2 51781  53.2152  96.1786 0002144  48.7387 311.3789 15.08837747 48999,6917.887,95.438,541.235,538.269,0.0
51781.0,STARLINK-3580,PAYLOAD,2023-01-16 12:16:00,15.08862325,0.0001915,53.2162,93.5049,66.90100000000001,293.2184,0.0011199,0.00017591,0.0,0 STARLINK-3580,1 51781U 22017P   23016.51111398  .00017591  00000-0  11199-2 0  9991,2 51781  53.2162  93.5049 0001915  66.9010 293.2184 15.08862325 49081,6917.812,95.436,541.002,538.352,0.0
51781.0,STARLINK-3580,PAYLOAD,2023-01-16 21:48:19,15.08832497,0.0002423999999999,53.2155,91.7172,66.745,293.3797,-0.00015382,-2.735e-05,0.0,0 STARLINK-3580,1 51781U 22017P   23016.90856120 -.00002735  00000-0 -15382-3 0  9998,2 51781  53.2155  91.7172 0002424  66.7450 293.3797 15.08832497 50790,6917.903,95.438,541.445,538.091,0.0
